GLOBALSTAR M094 [+]     
1 39074U 13005C   24112.20513714 -.00000085  00000+0  10273-3 0  9994
2 39074  51.9984  26.9264 0000881  68.2410 291.8550 12.62264516519086
GLOBALSTAR M096 [+]     
1 39075U 13005D   24112.05986876 -.00000088  00000+0  87654-4 0  9992
2 39075  52.0074  75.5517 0000772  54.6927 305.4012 12.62264516517983
GLOBALSTAR M078 [+]     
1 39076U 13005E   24112.58835563 -.00000042  00000+0  34611-3 0  9991
2 39076  51.9851 159.0336 0000777 342.0832  18.0007 12.62262594516889
GLOBALSTAR M095 [+]     
1 39077U 13005F   24112.29719577 -.00000053  00000+0  28523-3 0  9993
2 39077  51.9780 157.3210 0000634  28.3740 331.7161 12.62265508516498
GLOBALSTAR M087 [+]     
1 52888U 22064A   24112.24467395 -.00000076  00000+0  99273-4 0  9992
2 52888  51.9774  46.9348 0008900 218.0904 141.9368 13.37570442 89905
